start=new Date('2022-07-05T00:00:00.000Z').valueOf();
sats=[{"OBJECT_ID":"2021-009D","TLE_LINE1":"1 47551U 21009D   22185.62949039 -.00007189  00000-0 -46450-3 0  9993","MEAN_MOTION":"15.06375260","SITE":"AFETR","REF_FRAME":"TEME","ECCENTRICITY":"0.00016360","TIME_SYSTEM":"UTC","PERIAPSIS":"546.156","RA_OF_ASC_NODE":"295.3543","RCS_SIZE":"LARGE","APOAPSIS":"548.422","ARG_OF_PERICENTER":"56.4325","INCLINATION":"53.0539","DECAY_DATE":null,"NORAD_CAT_ID":"47551","TLE_LINE2":"2 47551  53.0539 295.3543 0001636  56.4325 303.6820 15.06375260 78216","CLASSIFICATION_TYPE":"U","PERIOD":"95.594","BSTAR":"-0.00046450000000","ELEMENT_SET_NO":"999","LAUNCH_DATE":"2021-02-04","FILE":"3507746","MEAN_MOTION_DOT":"-0.00007189","COUNTRY_CODE":"US","MEAN_ANOMALY":"303.6820","REV_AT_EPOCH":"7821","OBJECT_NAME":"STARLINK-1938","SEMIMAJOR_AXIS":"6925.424","EPOCH":"2022-07-04T15:06:27.969696","GP_ID":"207417293","EPHEMERIS_TYPE":"0","MEAN_MOTION_DDOT":"0.0000000000000","CENTER_NAME":"EARTH","MEAN_ELEMENT_THEORY":"SGP4","OBJECT_TYPE":"PAYLOAD"},{"REF_FRAME":"TEME","SITE":"AFETR","MEAN_MOTION":"15.06379036","TLE_LINE1":"1 47552U 21009E   22185.70045632 -.00002400  00000-0 -14233-3 0  9994","OBJECT_ID":"2021-009E","ECCENTRICITY":"0.00014430","INCLINATION":"53.0557","APOAPSIS":"548.277","RCS_SIZE":"LARGE","ARG_OF_PERICENTER":"67.8757","PERIAPSIS":"546.278","RA_OF_ASC_NODE":"285.0324","TIME_SYSTEM":"UTC","NORAD_CAT_ID":"47552","DECAY_DATE":null,"FILE":"3507746","MEAN_MOTION_DOT":"-0.00002400","COUNTRY_CODE":"US","LAUNCH_DATE":"2021-02-04","TLE_LINE2":"2 47552  53.0557 285.0324 0001443  67.8757 292.2385 15.06379036 78361","PERIOD":"95.593","BSTAR":"-0.00014233000000","CLASSIFICATION_TYPE":"U","ELEMENT_SET_NO":"999","EPOCH":"2022-07-04T16:48:39.426048","OBJECT_NAME":"STARLINK-1940","SEMIMAJOR_AXIS":"6925.413","MEAN_ANOMALY":"292.2385","REV_AT_EPOCH":"7836","MEAN_MOTION_DDOT":"0.0000000000000","EPHEMERIS_TYPE":"0","GP_ID":"207417535","OBJECT_TYPE":"PAYLOAD","MEAN_ELEMENT_THEORY":"SGP4","CENTER_NAME":"EARTH"},{"ELEMENT_SET_NO":"999","TLE_LINE2":"2 47554  53.0545 304.7007 0001308  71.3979 288.7152 15.06376355 78096","PERIOD":"95.594","CLASSIFICATION_TYPE":"U","BSTAR":"-0.00012798000000","LAUNCH_DATE":"2021-02-04","COUNTRY_CODE":"US","FILE":"3507746","MEAN_MOTION_DOT":"-0.00002186","REV_AT_EPOCH":"7809","MEAN_ANOMALY":"288.7152","SEMIMAJOR_AXIS":"6925.421","OBJECT_NAME":"STARLINK-1953","EPOCH":"2022-07-04T18:32:09.998880","GP_ID":"207416296","EPHEMERIS_TYPE":"0","MEAN_MOTION_DDOT":"0.0000000000000","CENTER_NAME":"EARTH","MEAN_ELEMENT_THEORY":"SGP4","OBJECT_TYPE":"PAYLOAD","OBJECT_ID":"2021-009G","TLE_LINE1":"1 47554U 21009G   22185.77233795 -.00002186  00000-0 -12798-3 0  9997","MEAN_MOTION":"15.06376355","SITE":"AFETR","REF_FRAME":"TEME","ECCENTRICITY":"0.00013080","TIME_SYSTEM":"UTC","RA_OF_ASC_NODE":"304.7007","PERIAPSIS":"546.380","RCS_SIZE":"LARGE","ARG_OF_PERICENTER":"71.3979","APOAPSIS":"548.192","INCLINATION":"53.0545","DECAY_DATE":null,"NORAD_CAT_ID":"47554"},{"NORAD_CAT_ID":"47555","DECAY_DATE":null,"INCLINATION":"53.0553","RCS_SIZE":"LARGE","ARG_OF_PERICENTER":"73.5781","APOAPSIS":"548.218","RA_OF_ASC_NODE":"294.5064","PERIAPSIS":"546.311","TIME_SYSTEM":"UTC","ECCENTRICITY":"0.00013770","REF_FRAME":"TEME","SITE":"AFETR","MEAN_MOTION":"15.06383470","OBJECT_ID":"2021-009H","TLE_LINE1":"1 47555U 21009H   22185.81379615 -.00000777  00000-0 -33280-4 0  9999","OBJECT_TYPE":"PAYLOAD","MEAN_ELEMENT_THEORY":"SGP4","CENTER_NAME":"EARTH","MEAN_MOTION_DDOT":"0.0000000000000","EPHEMERIS_TYPE":"0","GP_ID":"207416046","EPOCH":"2022-07-04T19:31:51.987360","OBJECT_NAME":"STARLINK-1954","SEMIMAJOR_AXIS":"6925.399","MEAN_ANOMALY":"286.5359","REV_AT_EPOCH":"7824","FILE":"3507746","MEAN_MOTION_DOT":"-0.00000777","COUNTRY_CODE":"US","LAUNCH_DATE":"2021-02-04","CLASSIFICATION_TYPE":"U","TLE_LINE2":"2 47555  53.0553 294.5064 0001377  73.5781 286.5359 15.06383470 78244","PERIOD":"95.593","BSTAR":"-0.00003328000000","ELEMENT_SET_NO":"999"},{"EPOCH":"2022-07-04T18:46:44.977728","MEAN_ANOMALY":"292.0654","REV_AT_EPOCH":"7795","OBJECT_NAME":"STARLINK-1955","SEMIMAJOR_AXIS":"6925.369","MEAN_MOTION_DOT":"-0.00002319","FILE":"3507746","COUNTRY_CODE":"US","CLASSIFICATION_TYPE":"U","TLE_LINE2":"2 47556  53.0577 314.6608 0001626  68.0507 292.0654 15.06393412 77955","PERIOD":"95.593","BSTAR":"-0.00013687000000","ELEMENT_SET_NO":"999","LAUNCH_DATE":"2021-02-04","MEAN_ELEMENT_THEORY":"SGP4","OBJECT_TYPE":"PAYLOAD","CENTER_NAME":"EARTH","MEAN_MOTION_DDOT":"0.0000000000000","GP_ID":"207416794","EPHEMERIS_TYPE":"0","ECCENTRICITY":"0.00016260","SITE":"AFETR","REF_FRAME":"TEME","TLE_LINE1":"1 47556U 21009J   22185.78246502 -.00002319  00000-0 -13687-3 0  9996","OBJECT_ID":"2021-009J","MEAN_MOTION":"15.06393412","NORAD_CAT_ID":"47556","DECAY_DATE":null,"RCS_SIZE":"LARGE","APOAPSIS":"548.360","ARG_OF_PERICENTER":"68.0507","INCLINATION":"53.0577","TIME_SYSTEM":"UTC","PERIAPSIS":"546.108","RA_OF_ASC_NODE":"314.6608"},{"MEAN_ANOMALY":"292.2843","REV_AT_EPOCH":"7795","OBJECT_NAME":"STARLINK-1956","SEMIMAJOR_AXIS":"6925.415","EPOCH":"2022-07-04T17:53:40.909632","TLE_LINE2":"2 47557  53.0549 314.8128 0001553  67.8311 292.2843 15.06378423 77950","BSTAR":"-0.00005972900000","PERIOD":"95.594","CLASSIFICATION_TYPE":"U","ELEMENT_SET_NO":"999","LAUNCH_DATE":"2021-02-04","FILE":"3507746","MEAN_MOTION_DOT":"-0.00001170","COUNTRY_CODE":"US","CENTER_NAME":"EARTH","MEAN_ELEMENT_THEORY":"SGP4","OBJECT_TYPE":"PAYLOAD","GP_ID":"207417036","EPHEMERIS_TYPE":"0","MEAN_MOTION_DDOT":"0.0000000000000","ECCENTRICITY":"0.00015530","TLE_LINE1":"1 47557U 21009K   22185.74561238 -.00001170  00000-0 -59729-4 0  9991","OBJECT_ID":"2021-009K","MEAN_MOTION":"15.06378423","SITE":"AFETR","REF_FRAME":"TEME","DECAY_DATE":null,"NORAD_CAT_ID":"47557","TIME_SYSTEM":"UTC","RA_OF_ASC_NODE":"314.8128","PERIAPSIS":"546.204","APOAPSIS":"548.355","RCS_SIZE":"LARGE","ARG_OF_PERICENTER":"67.8311","INCLINATION":"53.0549"},{"REF_FRAME":"TEME","SITE":"AFETR","MEAN_MOTION":"15.06387041","OBJECT_ID":"2021-009L","TLE_LINE1":"1 47558U 21009L   22185.65990907 -.00001142  00000-0 -57809-4 0  9997","ECCENTRICITY":"0.00016330","INCLINATION":"53.0556","APOAPSIS":"548.384","RCS_SIZE":"LARGE","ARG_OF_PERICENTER":"53.5362","RA_OF_ASC_NODE":"285.2111","PERIAPSIS":"546.122","TIME_SYSTEM":"UTC","NORAD_CAT_ID":"47558","DECAY_DATE":null,"COUNTRY_CODE":"US","MEAN_MOTION_DOT":"-0.00001142","FILE":"3507746","LAUNCH_DATE":"2021-02-04","ELEMENT_SET_NO":"999","TLE_LINE2":"2 47558  53.0556 285.2111 0001633  53.5362 306.5778 15.06387041 78356","CLASSIFICATION_TYPE":"U","PERIOD":"95.593","BSTAR":"-0.00005780900000","EPOCH":"2022-07-04T15:50:16.143648","SEMIMAJOR_AXIS":"6925.388","OBJECT_NAME":"STARLINK-1957","REV_AT_EPOCH":"7835","MEAN_ANOMALY":"306.5778","MEAN_MOTION_DDOT":"0.0000000000000","EPHEMERIS_TYPE":"0","GP_ID":"207415797","OBJECT_TYPE":"PAYLOAD","MEAN_ELEMENT_THEORY":"SGP4","CENTER_NAME":"EARTH"},{"ECCENTRICITY":"0.00014870","MEAN_MOTION":"15.06374978","OBJECT_ID":"2021-009M","TLE_LINE1":"1 47559U 21009M   22185.69032491 -.00002202  00000-0 -12907-3 0  9994","REF_FRAME":"TEME","SITE":"AFETR","DECAY_DATE":null,"NORAD_CAT_ID":"47559","RA_OF_ASC_NODE":"275.0705","PERIAPSIS":"546.260","TIME_SYSTEM":"UTC","INCLINATION":"53.0551","ARG_OF_PERICENTER":"61.6524","RCS_SIZE":"LARGE","APOAPSIS":"548.320","SEMIMAJOR_AXIS":"6925.425","OBJECT_NAME":"STARLINK-1958","REV_AT_EPOCH":"7850","MEAN_ANOMALY":"298.4614","EPOCH":"2022-07-04T16:34:04.072224","LAUNCH_DATE":"2021-02-04","ELEMENT_SET_NO":"999","TLE_LINE2":"2 47559  53.0551 275.0705 0001487  61.6524 298.4614 15.06374978 78505","PERIOD":"95.594","BSTAR":"-0.00012907000000","CLASSIFICATION_TYPE":"U","COUNTRY_CODE":"US","MEAN_MOTION_DOT":"-0.00002202","FILE":"3507746","CENTER_NAME":"EARTH","OBJECT_TYPE":"PAYLOAD","MEAN_ELEMENT_THEORY":"SGP4","EPHEMERIS_TYPE":"0","GP_ID":"207416546","MEAN_MOTION_DDOT":"0.0000000000000"},{"PERIAPSIS":"546.312","RA_OF_ASC_NODE":"275.6892","TIME_SYSTEM":"UTC","INCLINATION":"53.0539","ARG_OF_PERICENTER":"78.3167","RCS_SIZE":"LARGE","APOAPSIS":"548.261","DECAY_DATE":null,"NORAD_CAT_ID":"47560","MEAN_MOTION":"15.06376322","TLE_LINE1":"1 47560U 21009N   22185.54931152 -.00002819  00000-0 -17053-3 0  9993","OBJECT_ID":"2021-009N","REF_FRAME":"TEME","SITE":"AFETR","ECCENTRICITY":"0.00014070","EPHEMERIS_TYPE":"0","GP_ID":"207388307","MEAN_MOTION_DDOT":"0.0000000000000","CENTER_NAME":"EARTH","OBJECT_TYPE":"PAYLOAD","MEAN_ELEMENT_THEORY":"SGP4","LAUNCH_DATE":"2021-02-04","TLE_LINE2":"2 47560  53.0539 275.6892 0001407  78.3167 281.7980 15.06376322 78489","PERIOD":"95.594","CLASSIFICATION_TYPE":"U","BSTAR":"-0.00017053000000","ELEMENT_SET_NO":"999","FILE":"3507601","MEAN_MOTION_DOT":"-0.00002819","COUNTRY_CODE":"US","OBJECT_NAME":"STARLINK-1959","SEMIMAJOR_AXIS":"6925.421","MEAN_ANOMALY":"281.7980","REV_AT_EPOCH":"7848","EPOCH":"2022-07-04T13:11:00.515328"},{"ECCENTRICITY":"0.00013830","REF_FRAME":"TEME","SITE":"AFETR","MEAN_MOTION":"15.06381609","OBJECT_ID":"2021-009P","TLE_LINE1":"1 47561U 21009P   22185.73639513 -.00002951  00000-0 -17942-3 0  9995","NORAD_CAT_ID":"47561","DECAY_DATE":null,"INCLINATION":"53.0544","ARG_OF_PERICENTER":"94.7139","RCS_SIZE":"LARGE","APOAPSIS":"548.228","RA_OF_ASC_NODE":"294.8730","PERIAPSIS":"546.312","TIME_SYSTEM":"UTC","EPOCH":"2022-07-04T17:40:24.539232","OBJECT_NAME":"STARLINK-1960","SEMIMAJOR_AXIS":"6925.405","MEAN_ANOMALY":"265.4007","REV_AT_EPOCH":"7823","MEAN_MOTION_DOT":"-0.00002951","FILE":"3507746","COUNTRY_CODE":"US","LAUNCH_DATE":"2021-02-04","TLE_LINE2":"2 47561  53.0544 294.8730 0001383  94.7139 265.4007 15.06381609 78230","CLASSIFICATION_TYPE":"U","PERIOD":"95.593","BSTAR":"-0.00017942000000","ELEMENT_SET_NO":"999","OBJECT_TYPE":"PAYLOAD","MEAN_ELEMENT_THEORY":"SGP4","CENTER_NAME":"EARTH","MEAN_MOTION_DDOT":"0.0000000000000","EPHEMERIS_TYPE":"0","GP_ID":"207417536"}];
